<?xml version="1.0" encoding="UTF-8"?>
<kml xmlns="http://www.opengis.net/kml/2.2">
  <Document>
    <name>Warehouses</name>
    <Style id="depot">
      <IconStyle><color>ff2dd4bf</color><scale>1.2</scale></IconStyle>
    </Style>
    <Placemark>
      <name>London</name>
      <styleUrl>#depot</styleUrl>
      <Point><coordinates>-0.1276,51.5072,0</coordinates></Point>
    </Placemark>
    <Placemark>
      <name>Edinburgh</name>
      <styleUrl>#depot</styleUrl>
      <Point><coordinates>-3.1883,55.9533,0</coordinates></Point>
    </Placemark>
  </Document>
</kml>
